OBJECT_NAME,OBJECT_ID,EPOCH,MEAN_MOTION,ECCENTRICITY,INCLINATION,RA_OF_ASC_NODE,ARG_OF_PERICENTER,MEAN_ANOMALY,EPHEMERIS_TYPE,CLASSIFICATION_TYPE,NORAD_CAT_ID,ELEMENT_SET_NO,REV_AT_EPOCH,BSTAR,MEAN_MOTION_DOT,MEAN_MOTION_DDOT
STARLINK-2613,2021-038A,2024-07-28T18:33:39.790944,15.06499685,.000122,53.0562,125.3612,54.1523,305.9579,0,U,48353,999,17885,-.15804E-2,-.23807E-3,0
STARLINK-2674,2021-038B,2024-07-28T18:28:24.883680,15.06410000,.0001351,53.0540,125.3797,88.3077,271.8067,0,U,48354,999,17885,.11056E-3,.1366E-4,0
STARLINK-2635,2021-038C,2024-07-28T00:52:09.593760,15.06390428,.0001378,53.0537,128.6734,81.0537,279.0608,0,U,48355,999,17874,-.15787E-3,-.2631E-4,0
STARLINK-2637,2021-038D,2024-07-28T02:22:22.693728,15.06385302,.0001279,53.0531,128.3910,81.3339,278.7795,0,U,48356,999,17875,-.27413E-3,-.436E-4,0
STARLINK-2636,2021-038E,2024-07-28T01:39:59.972832,15.06388806,.0001466,53.0535,128.9518,99.8333,260.2821,0,U,48357,999,17874,.39299E-4,.304E-5,0
STARLINK-2624,2021-038F,2024-07-28T18:07:10.421472,15.06399515,.0001346,53.0547,125.4423,86.3778,273.7365,0,U,48358,999,17884,-.15268E-3,-.2555E-4,0
STARLINK-2628,2021-038G,2024-07-28T02:06:27.548640,15.06390777,.0001309,53.0521,128.4418,110.5212,249.5917,0,U,48359,999,17939,-.79762E-4,-.1469E-4,0
STARLINK-2622,2021-038H,2024-07-28T11:34:24.097440,15.06386727,.0001232,53.0526,126.6715,75.4524,284.6602,0,U,48360,999,17880,.6488E-3,.9392E-4,0
STARLINK-2591,2021-038J,2024-07-28T11:29:06.552384,15.06387773,.0001053,53.0527,126.6870,80.0510,280.0598,0,U,48361,999,17880,-.50677E-4,-.1036E-4,0
STARLINK-2578,2021-038K,2024-07-28T01:08:05.870688,15.06399472,.0001565,53.0548,128.7102,99.5489,260.5677,0,U,48362,999,17874,.19235E-3,.2585E-4,0
STARLINK-2626,2021-038L,2024-07-28T01:18:55.106208,15.06985560,.0001248,53.0536,123.5705,90.3542,269.7590,0,U,48363,999,17881,.98596E-3,.14669E-3,0
STARLINK-2611,2021-038M,2024-07-28T01:37:57.800640,15.06382361,.0001424,53.0525,123.6938,76.5798,283.5349,0,U,48364,999,17881,-.10486E-4,-.438E-5,0
STARLINK-2608,2021-038N,2024-07-28T11:53:38.970816,15.06393046,.0001418,53.0540,121.6121,66.4322,293.6815,0,U,48365,999,17888,.76272E-4,.855E-5,0
STARLINK-2631,2021-038P,2024-07-28T11:35:42.599616,15.06407633,.0001352,53.0534,116.6715,81.6490,278.4652,0,U,48366,999,17894,.14346E-3,.1856E-4,0
STARLINK-2643,2021-038Q,2024-07-28T21:03:39.647808,15.06374958,.000149,53.0533,114.8997,91.7105,268.4055,0,U,48367,999,17900,.26327E-3,.3639E-4,0
STARLINK-2623,2021-038R,2024-07-28T17:20:45.513600,15.06398513,.0002566,53.0533,115.8752,75.0461,285.0812,0,U,48368,999,17898,-.1518E-3,-.2542E-4,0
STARLINK-2641,2021-038S,2024-07-28T20:58:19.579008,15.06381625,.0001457,53.0536,114.9158,97.2469,262.8685,0,U,48369,999,17900,-.55281E-3,-.8502E-4,0
STARLINK-2621,2021-038T,2024-07-28T17:41:56.443776,15.06396601,.0002564,53.0528,115.5294,87.0326,273.0956,0,U,48370,999,17898,-.4695E-4,-.981E-5,0
STARLINK-2589,2021-038U,2024-07-28T11:14:29.741856,15.06386984,.0001576,53.0547,116.7377,87.4116,272.7053,0,U,48371,999,17894,-.20417E-4,-.585E-5,0
STARLINK-2572,2021-038V,2024-07-28T14:00:01.000224,15.75711416,.000395,53.0515,55.0548,255.0655,297.8493,0,U,48372,999,17981,.12257E-2,.195732E-2,0
STARLINK-2609,2021-038W,2024-07-28T11:03:52.928928,15.06390736,.0001325,53.0539,116.7678,78.1081,282.0056,0,U,48373,999,17894,-.56944E-4,-.1129E-4,0
STARLINK-2604,2021-038X,2024-07-28T21:19:39.122400,15.06383070,.0001514,53.0524,115.1893,111.0223,249.0928,0,U,48374,999,17900,.10953E-4,-.118E-5,0
STARLINK-2603,2021-038Y,2024-07-28T01:20:00.928320,15.06396307,.0001607,53.0549,118.5926,107.2347,252.8818,0,U,48375,999,17888,-.9147E-4,-.1644E-4,0
STARLINK-2610,2021-038Z,2024-07-28T10:47:57.026112,15.06380015,.0001447,53.0534,116.8144,81.1614,278.9538,0,U,48376,999,17894,-.97944E-4,-.1739E-4,0
STARLINK-2499,2021-038AA,2024-07-28T18:13:53.388480,15.06365329,.0001229,53.0527,115.9269,98.4149,261.6979,0,U,48377,999,17898,.24127E-3,.3311E-4,0
STARLINK-2526,2021-038AB,2024-07-28T18:35:01.042368,15.06385082,.0001666,53.0536,115.3604,102.7268,257.3907,0,U,48378,999,17899,-.11039E-2,-.16679E-3,0
STARLINK-2612,2021-038AC,2024-07-28T18:29:44.207520,15.06385454,.0002002,53.0538,115.3749,81.8449,278.2767,0,U,48379,999,17899,-.72238E-4,-.1357E-4,0
STARLINK-2614,2021-038AD,2024-07-28T10:42:42.499008,15.06409321,.0001065,53.0519,117.3420,89.0706,271.0405,0,U,48380,999,17893,.14732E-3,.1914E-4,0
STARLINK-2630,2021-038AE,2024-07-28T18:24:24.510240,15.06395089,.0002561,53.0558,115.3959,101.4640,258.6637,0,U,48381,999,17899,-.10573E-3,-.1856E-4,0
