STARLINK-2613           
1 48353U 21038A   24210.77337721 -.00023807  00000+0 -15804-2 0  9994
2 48353  53.0562 125.3612 0001220  54.1523 305.9579 15.06499685178851
STARLINK-2674           
1 48354U 21038B   24210.76973245  .00001366  00000+0  11056-3 0  9991
2 48354  53.0540 125.3797 0001351  88.3077 271.8067 15.06410000178857
STARLINK-2635           
1 48355U 21038C   24210.03622215 -.00002631  00000+0 -15787-3 0  9993
2 48355  53.0537 128.6734 0001378  81.0537 279.0608 15.06390428178741
STARLINK-2637           
1 48356U 21038D   24210.09887377 -.00004360  00000+0 -27413-3 0  9992
2 48356  53.0531 128.3910 0001279  81.3339 278.7795 15.06385302178751
STARLINK-2636           
1 48357U 21038E   24210.06944413  .00000304  00000+0  39299-4 0  9993
2 48357  53.0535 128.9518 0001466  99.8333 260.2821 15.06388806178749
STARLINK-2624           
1 48358U 21038F   24210.75498173 -.00002555  00000+0 -15268-3 0  9998
2 48358  53.0547 125.4423 0001346  86.3778 273.7365 15.06399515178843
STARLINK-2628           
1 48359U 21038G   24210.08781885 -.00001469  00000+0 -79762-4 0  9993
2 48359  53.0521 128.4418 0001309 110.5212 249.5917 15.06390777179391
STARLINK-2622           
1 48360U 21038H   24210.48222335  .00009392  00000+0  64880-3 0  9994
2 48360  53.0526 126.6715 0001232  75.4524 284.6602 15.06386727178804
STARLINK-2591           
1 48361U 21038J   24210.47854806 -.00001036  00000+0 -50677-4 0  9997
2 48361  53.0527 126.6870 0001053  80.0510 280.0598 15.06387773178802
STARLINK-2578           
1 48362U 21038K   24210.04729017  .00002585  00000+0  19235-3 0  9998
2 48362  53.0548 128.7102 0001565  99.5489 260.5677 15.06399472178748
STARLINK-2626           
1 48363U 21038L   24210.05480447  .00014669  00000+0  98596-3 0  9994
2 48363  53.0536 123.5705 0001248  90.3542 269.7590 15.06985560178817
STARLINK-2611           
1 48364U 21038M   24210.06803010 -.00000438  00000+0 -10486-4 0  9995
2 48364  53.0525 123.6938 0001424  76.5798 283.5349 15.06382361178816
STARLINK-2608           
1 48365U 21038N   24210.49558994  .00000855  00000+0  76272-4 0  9997
2 48365  53.0540 121.6121 0001418  66.4322 293.6815 15.06393046178889
STARLINK-2631           
1 48366U 21038P   24210.48313194  .00001856  00000+0  14346-3 0  9993
2 48366  53.0534 116.6715 0001352  81.6490 278.4652 15.06407633178943
STARLINK-2643           
1 48367U 21038Q   24210.87754222  .00003639  00000+0  26327-3 0  9991
2 48367  53.0533 114.8997 0001490  91.7105 268.4055 15.06374958179000
STARLINK-2623           
1 48368U 21038R   24210.72274900 -.00002542  00000+0 -15180-3 0  9995
2 48368  53.0533 115.8752 0002566  75.0461 285.0812 15.06398513178981
STARLINK-2641           
1 48369U 21038S   24210.87383772 -.00008502  00000+0 -55281-3 0  9998
2 48369  53.0536 114.9158 0001457  97.2469 262.8685 15.06381625179008
STARLINK-2621           
1 48370U 21038T   24210.73745884 -.00000981  00000+0 -46950-4 0  9998
2 48370  53.0528 115.5294 0002564  87.0326 273.0956 15.06396601178989
STARLINK-2589           
1 48371U 21038U   24210.46839979 -.00000585  00000+0 -20417-4 0  9998
2 48371  53.0547 116.7377 0001576  87.4116 272.7053 15.06386984178942
STARLINK-2572           
1 48372U 21038V   24210.58334491  .00195732  00000+0  12257-2 0  9999
2 48372  53.0515  55.0548 0003950 255.0655 297.8493 15.75711416179813
STARLINK-2609           
1 48373U 21038W   24210.46102927 -.00001129  00000+0 -56944-4 0  9995
2 48373  53.0539 116.7678 0001325  78.1081 282.0056 15.06390736178946
STARLINK-2604           
1 48374U 21038X   24210.88864725 -.00000118  00000+0  10953-4 0  9999
2 48374  53.0524 115.1893 0001514 111.0223 249.0928 15.06383070179000
STARLINK-2603           
1 48375U 21038Y   24210.05556630 -.00001644  00000+0 -91470-4 0  9991
2 48375  53.0549 118.5926 0001607 107.2347 252.8818 15.06396307178881
STARLINK-2610           
1 48376U 21038Z   24210.44996558 -.00001739  00000+0 -97944-4 0  9999
2 48376  53.0534 116.8144 0001447  81.1614 278.9538 15.06380015178942
STARLINK-2499           
1 48377U 21038AA  24210.75964570  .00003311  00000+0  24127-3 0  9991
2 48377  53.0527 115.9269 0001229  98.4149 261.6979 15.06365329178988
STARLINK-2526           
1 48378U 21038AB  24210.77431762 -.00016679  00000+0 -11039-2 0  9996
2 48378  53.0536 115.3604 0001666 102.7268 257.3907 15.06385082178994
STARLINK-2612           
1 48379U 21038AC  24210.77065055 -.00001357  00000+0 -72238-4 0  9992
2 48379  53.0538 115.3749 0002002  81.8449 278.2767 15.06385454178999
STARLINK-2614           
1 48380U 21038AD  24210.44632522  .00001914  00000+0  14732-3 0  9998
2 48380  53.0519 117.3420 0001065  89.0706 271.0405 15.06409321178936
STARLINK-2630           
1 48381U 21038AE  24210.76695035 -.00001856  00000+0 -10573-3 0  9998
2 48381  53.0558 115.3959 0002561 101.4640 258.6637 15.06395089178992
